STARLINK-3240           
1 49728U 21115E   23245.48648999  .00007440  00000+0  48493-3 0  9998
2 49728  53.2155 325.5870 0001125  84.2645 275.8476 15.08847077 96620
STARLINK-3251           
1 49729U 21115F   23245.49115370 -.00001852  00000+0 -98398-4 0  9995
2 49729  53.2154 325.5764 0001048  76.2265 283.8844 15.08816283 97731
STARLINK-3249           
1 49730U 21115G   23245.91667824 -.00007741  00000+0 -49042-3 0  9994
2 49730  53.2171 323.7077 0001205  88.6834   1.7798 15.07206225 97792
STARLINK-3228           
1 49731U 21115H   23245.62631830  .00002055  00000+0  14712-3 0  9998
2 49731  53.2189 324.9569 0000980  85.7113 274.3991 15.08852201 97759
STARLINK-3246           
1 49732U 21115J   23245.57207808  .00000427  00000+0  44900-4 0  9991
2 49732  53.2179 325.1700 0001370 108.1533 251.9609 15.08844498 97744
STARLINK-3252           
1 49733U 21115K   23245.63368034 -.00000867  00000+0 -36364-4 0  9993
2 49733  53.2159 324.9262 0001499  92.8761 267.2402 15.08855443 97751
STARLINK-3238           
1 49734U 21115L   23245.52053319  .00001075  00000+0  85597-4 0  9991
2 49734  53.2167 315.4590 0001393  77.7819 282.3329 15.08840521 96777
STARLINK-3113           
1 49735U 21115M   23245.70088286  .00003834  00000+0  25877-3 0  9992
2 49735  53.2170 324.5945 0001394  82.3971 277.7179 15.08847514 97769
STARLINK-3148           
1 49736U 21115N   23245.58334491 -.00013913  00000+0 -81982-3 0  9991
2 49736  53.2156 315.1227 0001470  69.5670 247.6456 15.10471801  5859
STARLINK-3225           
1 49737U 21115P   23245.59044741  .00000911  00000+0  75319-4 0  9999
2 49737  53.2168 315.1192 0001407  80.9212 279.1940 15.08844125 97896
STARLINK-3143           
1 49738U 21115Q   23245.46532696  .00000725  00000+0  63648-4 0  9992
2 49738  53.2164 315.6769 0001447  89.0652 271.0506 15.08845065 96768
STARLINK-3155           
1 49739U 21115R   23245.51224695  .00001115  00000+0  88157-4 0  9992
2 49739  53.2184 325.4731 0001505 102.9625 257.1536 15.08842545 96622
STARLINK-3226           
1 49740U 21115S   23245.47364017  .00000369  00000+0  41294-4 0  9993
2 49740  53.2149 315.6149 0001427  87.0492 273.0664 15.08842607 96760
STARLINK-3244           
1 49741U 21115T   23245.60244280  .00001291  00000+0  99164-4 0  9992
2 49741  53.2189 315.0726 0001687 105.2905 254.8274 15.08846441 97899
STARLINK-3202           
1 49742U 21115U   23245.48372715  .00000450  00000+0  46347-4 0  9995
2 49742  53.2154 315.5994 0001548  87.9081 272.2088 15.08844787 97877
STARLINK-3239           
1 49743U 21115V   23245.46627572  .00000863  00000+0  72323-4 0  9999
2 49743  53.2154 315.6071 0001291  89.6048 270.5092 15.08843888 96766
STARLINK-3231           
1 49744U 21115W   23245.48099166 -.00000159  00000+0  81115-5 0  9993
2 49744  53.2169 315.5063 0001067  89.5137 270.5977 15.08848542 97879
STARLINK-3241           
1 49745U 21115X   23245.47731399  .00003077  00000+0  21127-3 0  9990
2 49745  53.2177 315.5982 0001291  94.1273 265.9867 15.08851720 97879
STARLINK-3233           
1 49746U 21115Y   23245.49844837  .00000937  00000+0  76969-4 0  9992
2 49746  53.2163 315.5305 0001300  87.5786 272.5355 15.08840297 96760
STARLINK-3247           
1 49747U 21115Z   23245.68612305  .00003758  00000+0  25401-3 0  9995
2 49747  53.2165 314.6913 0000942  96.1632 263.9468 15.08848562 97904
STARLINK-3248           
1 49748U 21115AA  23245.57204916  .00000828  00000+0  70085-4 0  9993
2 49748  53.2205 315.2050 0001516  95.8738 264.2427 15.08840820 97896
STARLINK-3250           
1 49749U 21115AB  23245.91667824 -.00001745  00000+0 -96080-4 0  9997
2 49749  53.2159 313.6898 0001146  87.0975  27.6912 15.07191048 97937
STARLINK-3236           
1 49750U 21115AC  23245.51412977  .00001111  00000+0  87905-4 0  9993
2 49750  53.2168 315.4742 0001382  82.4380 277.6769 15.08839028 97887
STARLINK-3229           
1 49751U 21115AD  23245.58334491 -.00029702  00000+0 -18563-2 0  9995
2 49751  53.2167 315.0752 0001387  87.5783  34.0152 15.08831399  5751
STARLINK-3209           
1 49752U 21115AE  23245.46352172  .00000771  00000+0  66503-4 0  9991
2 49752  53.2144 305.7000 0001779  89.6282 270.4914 15.08846886 96907
STARLINK-3200           
1 49753U 21115AF  23245.50948988  .00001472  00000+0  11058-3 0  9996
2 49753  53.2167 315.4858 0001331  85.9621 274.1523 15.08841546 96772
STARLINK-3193           
1 49754U 21115AG  23245.46625745  .00002405  00000+0  16911-3 0  9995
2 49754  53.2176 305.7828 0001365  89.9424 270.1724 15.08848396 98012
STARLINK-3210           
1 49755U 21115AH  23245.51684646  .00001870  00000+0  13550-3 0  9998
2 49755  53.2167 315.4483 0001356  87.9458 272.1689 15.08845406 96775
STARLINK-3207           
1 49756U 21115AJ  23245.47361018  .00000775  00000+0  66776-4 0  9991
2 49756  53.2201 305.6426 0001253  90.7529 269.3607 15.08840191 96909
STARLINK-3197           
1 49757U 21115AK  23245.46720275  .00002696  00000+0  18736-3 0  9991
2 49757  53.2159 305.6831 0001298  87.0592 273.0549 15.08849409 96908
STARLINK-3194           
1 49758U 21115AL  23245.67968247  .00001962  00000+0  14131-3 0  9998
2 49758  53.2152 304.7202 0001368  94.8803 265.2345 15.08846725 98045
STARLINK-3204           
1 49759U 21115AM  23245.46992498  .00001964  00000+0  14144-3 0  9997
2 49759  53.2147 305.6622 0001289  96.7043 263.4096 15.08845178 96902
STARLINK-3199           
1 49760U 21115AN  23245.68704410  .00001515  00000+0  11325-3 0  9998
2 49760  53.2198 304.6827 0001361  89.1469 270.9680 15.08851042 98052
STARLINK-3203           
1 49761U 21115AP  23245.47728701  .00001146  00000+0  90070-4 0  9990
2 49761  53.2172 305.6296 0001347  93.5181 266.5965 15.08844297 96903
STARLINK-3195           
1 49762U 21115AQ  23245.49568672  .00001032  00000+0  82905-4 0  9994
2 49762  53.2152 305.5448 0001558  90.8128 269.3043 15.08847470 96910
STARLINK-3198           
1 49763U 21115AR  23245.48464670  .00000658  00000+0  59447-4 0  9995
2 49763  53.2172 305.5955 0001316  83.7178 276.3964 15.08843744 96914
STARLINK-3206           
1 49764U 21115AS  23245.50304931  .00001336  00000+0  10199-3 0  9996
2 49764  53.2140 305.5100 0001710 101.7848 258.3335 15.08842238 98028
STARLINK-3227           
1 49765U 21115AT  23245.49297361 -.00000238  00000+0  31552-5 0  9992
2 49765  53.2179 305.5682 0001254  83.0261 277.0874 15.08837404 98025
STARLINK-3190           
1 49766U 21115AU  23245.64017432  .00011061  00000+0  71225-3 0  9993
2 49766  53.2155 304.9081 0001505  81.1305 278.9858 15.08825379 98045
STARLINK-3192           
1 49767U 21115AV  23245.43313069  .00000310  00000+0  37578-4 0  9995
2 49767  53.2158 305.8267 0001143  82.2332 277.8790 15.08839043 96904
STARLINK-3196           
1 49768U 21115AW  23245.44784609  .00000680  00000+0  60812-4 0  9996
2 49768  53.2163 305.7606 0001260  87.0066 273.1070 15.08844954 96901
STARLINK-3208           
1 49769U 21115AX  23245.44880765  .00000731  00000+0  64028-4 0  9997
2 49769  53.2160 305.8043 0001520  85.0500 275.0666 15.08844726 96904
STARLINK-3191           
1 49770U 21115AY  23245.45617198  .00000285  00000+0  35991-4 0  9999
2 49770  53.2156 305.7689 0001404  85.7261 274.3892 15.08840837 98025
STARLINK-3201           
1 49771U 21115AZ  23245.65392439  .00001978  00000+0  14236-3 0  9998
2 49771  53.2133 304.8372 0001686  98.1103 262.0081 15.08840207 98042
STARLINK-3317           
1 50156U 21125A   23245.47181124  .00000336  00000+0  39170-4 0  9997
2 50156  53.2174  55.6474 0001269  89.4221 270.6917 15.08835999 97359
STARLINK-3313           
1 50157U 21125B   23245.23073916  .00002708  00000+0  18818-3 0  9991
2 50157  53.2076  66.7319 0002284  93.3122 266.8131 15.08835309 97691
STARLINK-3309           
1 50158U 21125C   23245.68433557  .00002333  00000+0  16464-3 0  9991
2 50158  53.2175  64.7079 0001083  94.5716 265.5399 15.08831546 94633
STARLINK-3297           
1 50159U 21125D   23245.48193400  .00001591  00000+0  11805-3 0  9999
2 50159  53.2185  65.6166 0001282  97.4293 262.6845 15.08836011 94147
STARLINK-3288           
1 50160U 21125E   23245.48833637  .00001118  00000+0  88304-4 0  9998
2 50160  53.2159  65.5757 0001540  85.2983 274.8185 15.08836082 97696
STARLINK-3304           
1 50161U 21125F   23245.75697629  .00000720  00000+0  63338-4 0  9996
2 50161  53.2172  64.3693 0001394  87.3977 272.7174 15.08837639 97246
STARLINK-3303           
1 50162U 21125G   23245.58334491 -.00608415  00000+0 -24509-2 0  9995
2 50162  53.2031 173.6360 0000823 115.9446 159.1821 15.87090459  6077
STARLINK-3306           
1 50163U 21125H   23245.74041251  .00004757  00000+0  31668-3 0  9995
2 50163  53.2172  44.4342 0001209  88.3102 271.8028 15.08847646 97522
STARLINK-3298           
1 50165U 21125K   23245.67601856 -.00000463  00000+0 -11013-4 0  9997
2 50165  53.2197  64.7378 0001162  93.2449 266.8676 15.08834833 94638
STARLINK-3305           
1 50166U 21125L   23245.75923624 -.00068478  00000+0 -42020-2 0  9997
2 50166  53.2181  54.2936 0001377  95.8953 264.2196 15.09895326 94782
STARLINK-3271           
1 50167U 21125M   23245.53716000 -.00002826  00000+0 -15970-3 0  9992
2 50167  53.2156  65.3658 0001107  90.4698 269.6421 15.08804381 97690
STARLINK-3296           
1 50168U 21125N   23245.49661545  .00000747  00000+0  65017-4 0  9997
2 50168  53.2154  55.5363 0001526  91.1761 268.9406 15.08833241 94742
STARLINK-3301           
1 50169U 21125P   23245.46717681  .00000502  00000+0  49653-4 0  9995
2 50169  53.2169  55.6683 0001559  83.9334 276.1836 15.08833932 97834
STARLINK-3245           
1 50170U 21125Q   23245.75421288  .00001011  00000+0  81626-4 0  9996
2 50170  53.2177  54.3858 0001372  89.3609 270.7540 15.08839371 97388
STARLINK-3286           
1 50171U 21125R   23245.50397677 -.00000782  00000+0 -31037-4 0  9991
2 50171  53.2159  55.5074 0001436  87.4222 272.6935 15.08837484 97835
